id,Line1,Line2,zipcode,state,Country
10000001,2020 Kane Ln,,50403,VA,USA
10000002,2021 Kane Ln,,50403,VA,USA
10000003,2022 Kane Ln,,50403,VA,USA
10000004,2023 Kane Ln,,50403,VA,USA
10000005,2024 Kane Ln,,50403,VA,USA
10000006,2025 Kane Ln,,50403,VA,USA
10000007,2026 Kane Ln,,50403,VA,USA
10000008,2027 Kane Ln,,50403,VA,USA
10000009,2028 Kane Ln,,50403,VA,USA
10000010,2029 Kane Ln,,50403,VA,USA
10000011,2030 Kane Ln,,50403,VA,USA
10000012,2031 Kane Ln,,50403,VA,USA
10000013,2032 Kane Ln,,50403,VA,USA
10000014,2033 Kane Ln,,50403,VA,USA
10000015,2034 Kane Ln,,50403,VA,USA
10000016,2035 Kane Ln,,50403,VA,USA
10000017,2036 Kane Ln,,50403,VA,USA
10000018,2037 Kane Ln,,50403,VA,USA
10000019,2038 Kane Ln,,50403,VA,USA
10000020,2039 Kane Ln,,50403,VA,USA
10000021,2040 Kane Ln,,50403,VA,USA
10000022,2041 Kane Ln,,50403,VA,USA
10000023,2042 Kane Ln,,50403,VA,USA
10000024,2043 Kane Ln,,50403,VA,USA
10000025,2044 Kane Ln,,50403,VA,USA
10000026,2045 Kane Ln,,50403,VA,USA
10000027,2046 Kane Ln,,50403,VA,USA
10000028,2047 Kane Ln,,50403,VA,USA
10000029,2048 Kane Ln,,50403,VA,USA
10000030,2049 Kane Ln,,50403,VA,USA
10000031,2050 Kane Ln,,50403,VA,USA
10000032,2051 Kane Ln,,50403,VA,USA
10000033,2052 Kane Ln,,50403,VA,USA
10000034,2053 Kane Ln,,50403,VA,USA
10000035,2054 Kane Ln,,50403,VA,USA
10000036,2055 Kane Ln,,50403,VA,USA
10000037,2056 Kane Ln,,50403,VA,USA
10000038,2057 Kane Ln,,50403,VA,USA
10000039,2058 Kane Ln,,50403,VA,USA
10000040,2059 Kane Ln,,50403,VA,USA
10000041,2060 Kane Ln,,50403,VA,USA
10000042,2061 Kane Ln,,50403,VA,USA
10000043,2062 Kane Ln,,50403,VA,USA
10000044,2063 Kane Ln,,50403,VA,USA
10000045,2064 Kane Ln,,50403,VA,USA
10000046,2065 Kane Ln,,50403,VA,USA
10000047,2066 Kane Ln,,50403,VA,USA
10000048,2067 Kane Ln,,50403,VA,USA
10000049,2068 Kane Ln,,50403,VA,USA
10000050,2069 Kane Ln,,50403,VA,USA
10000051,2070 Kane Ln,,50403,VA,USA
10000052,2071 Kane Ln,,50403,VA,USA
10000053,2072 Kane Ln,,50403,VA,USA
10000054,2073 Kane Ln,,50403,VA,USA
10000055,2074 Kane Ln,,50403,VA,USA
10000056,2075 Kane Ln,,50403,VA,USA
10000057,2076 Kane Ln,,50403,VA,USA
10000058,2077 Kane Ln,,50403,VA,USA